[
  {
    "name": "PLEIADES NEO 3",
    "line1": "1 48268U 21034A   25349.22717378  .00001927  00000+0  25143-3 0  9994",
    "line2": "2 48268  97.8945  61.6322 0001320  93.5672 266.5692 14.81673903250410",
    "catNr": 48268
  },
  {
    "name": "PLEIADES NEO 4",
    "line1": "1 49070U 21073E   25350.00378905 -.00000297  00000+0 -31094-4 0  9990",
    "line2": "2 49070  97.8947  62.3935 0001325  89.7120 270.4244 14.81670710234245",
    "catNr": 49070
  }
]